{"type": "FeatureCollection", "features": [{"type": "Feature", "properties": {"norad_id": 22675, "name": "COSMOS 2251", "group": "cosmos-2251-debris", "lat": -64.66984735534805, "lon": 157.55240901874703, "alt_km": 799.0994647441657, "timestamp": "2025-12-21T05:44:51.979698+00:00", "meta": {"OBJECT_NAME": "COSMOS 2251", "OBJECT_ID": "1993-036A", "EPOCH": "2025-12-20T20:12:29.085120", "MEAN_MOTION": 14.33206935, "ECCENTRICITY": 0.00242816, "INCLINATION": 74.04, "RA_OF_ASC_NODE": 301.0795, "ARG_OF_PERICENTER": 21.0867, "MEAN_ANOMALY": 339.1279, "EPHEMERIS_TYPE": 0, "CLASSIFICATION_TYPE": "U", "NORAD_CAT_ID": 22675, "ELEMENT_SET_NO": 999, "REV_AT_EPOCH": 69889, "BSTAR": 3.3720442e-05, "MEAN_MOTION_DOT": 6.7e-07, "MEAN_MOTION_DDOT": 0}, "tle": {"line1": "1 22675U 93036A   25354.84200330  .00000067  00000+0  33720-4 0  9993", "line2": "2 22675  74.0400 301.0795 0024281  21.0867 339.1279 14.33206935698895"}}, "geometry": {"type": "Point", "coordinates": [157.55240901874703, -64.66984735534805]}}, {"type": "Feature", "properties": {"norad_id": 33757, "name": "COSMOS 2251 DEB", "group": "cosmos-2251-debris", "lat": -74.02686632512513, "lon": -142.4456307078515, "alt_km": 782.9318464284197, "timestamp": "2025-12-21T05:44:51.979722+00:00", "meta": {"OBJECT_NAME": "COSMOS 2251 DEB", "OBJECT_ID": "1993-036E", "EPOCH": "2025-12-20T22:02:40.115904", "MEAN_MOTION": 14.32582915, "ECCENTRICITY": 0.0015536, "INCLINATION": 74.0373, "RA_OF_ASC_NODE": 308.6786, "ARG_OF_PERICENTER": 320.6492, "MEAN_ANOMALY": 94.661, "EPHEMERIS_TYPE": 0, "CLASSIFICATION_TYPE": "U", "NORAD_CAT_ID": 33757, "ELEMENT_SET_NO": 999, "REV_AT_EPOCH": 88113, "BSTAR": 3.0322786e-05, "MEAN_MOTION_DOT": 5.6e-07, "MEAN_MOTION_DDOT": 0}, "tle": {"line1": "1 33757U 93036E   25354.91851986  .00000056  00000+0  30323-4 0  9997", "line2": "2 33757  74.0373 308.6786 0015536 320.6492  94.6610 14.32582915881132"}}, "geometry": {"type": "Point", "coordinates": [-142.4456307078515, -74.02686632512513]}}, {"type": "Feature", "properties": {"norad_id": 33758, "name": "COSMOS 2251 DEB", "group": "cosmos-2251-debris", "lat": 69.77115966882502, "lon": -109.9660694519037, "alt_km": 725.3013275822541, "timestamp": "2025-12-21T05:44:51.979737+00:00", "meta": {"OBJECT_NAME": "COSMOS 2251 DEB", "OBJECT_ID": "1993-036F", "EPOCH": "2025-12-20T21:38:54.553920", "MEAN_MOTION": 14.51637391, "ECCENTRICITY": 0.00172212, "INCLINATION": 74.0264, "RA_OF_ASC_NODE": 199.6555, "ARG_OF_PERICENTER": 265.8149, "MEAN_ANOMALY": 208.7518, "EPHEMERIS_TYPE": 0, "CLASSIFICATION_TYPE": "U", "NORAD_CAT_ID": 33758, "ELEMENT_SET_NO": 999, "REV_AT_EPOCH": 88423, "BSTAR": 0.00049731246, "MEAN_MOTION_DOT": 1.97e-05, "MEAN_MOTION_DDOT": 0}, "tle": {"line1": "1 33758U 93036F   25354.90202030  .00001970  00000+0  49731-3 0  9995", "line2": "2 33758  74.0264 199.6555 0017221 265.8149 208.7518 14.51637391884235"}}, "geometry": {"type": "Point", "coordinates": [-109.9660694519037, 69.77115966882502]}}, {"type": "Feature", "properties": {"norad_id": 33760, "name": "COSMOS 2251 DEB", "group": "cosmos-2251-debris", "lat": -65.85224773442516, "lon": 125.54904658106831, "alt_km": 784.7820840934564, "timestamp": "2025-12-21T05:44:51.979749+00:00", "meta": {"OBJECT_NAME": "COSMOS 2251 DEB", "OBJECT_ID": "1993-036H", "EPOCH": "2025-12-20T22:14:14.155872", "MEAN_MOTION": 14.35677539, "ECCENTRICITY": 0.00202607, "INCLINATION": 74.0322, "RA_OF_ASC_NODE": 266.4317, "ARG_OF_PERICENTER": 2.9233, "MEAN_ANOMALY": 72.1561, "EPHEMERIS_TYPE": 0, "CLASSIFICATION_TYPE": "U", "NORAD_CAT_ID": 33760, "ELEMENT_SET_NO": 999, "REV_AT_EPOCH": 88242, "BSTAR": 7.5153933e-05, "MEAN_MOTION_DOT": 1.91e-06, "MEAN_MOTION_DDOT": 0}, "tle": {"line1": "1 33760U 93036H   25354.92655273  .00000191  00000+0  75154-4 0  9994", "line2": "2 33760  74.0322 266.4317 0020260   2.9233  72.1561 14.35677539882423"}}, "geometry": {"type": "Point", "coordinates": [125.54904658106831, -65.85224773442516]}}, {"type": "Feature", "properties": {"norad_id": 33761, "name": "COSMOS 2251 DEB", "group": "cosmos-2251-debris", "lat": 29.835344544076772, "lon": -114.15722191811315, "alt_km": 744.0826895261089, "timestamp": "2025-12-21T05:44:51.979760+00:00", "meta": {"OBJECT_NAME": "COSMOS 2251 DEB", "OBJECT_ID": "1993-036J", "EPOCH": "2025-12-20T23:02:59.631360", "MEAN_MOTION": 14.42566154, "ECCENTRICITY": 0.00232624, "INCLINATION": 74.0353, "RA_OF_ASC_NODE": 236.9108, "ARG_OF_PERICENTER": 315.9644, "MEAN_ANOMALY": 66.3023, "EPHEMERIS_TYPE": 0, "CLASSIFICATION_TYPE": "U", "NORAD_CAT_ID": 33761, "ELEMENT_SET_NO": 999, "REV_AT_EPOCH": 88353, "BSTAR": 0.00027829302, "MEAN_MOTION_DOT": 9e-06, "MEAN_MOTION_DDOT": 0}, "tle": {"line1": "1 33761U 93036J   25354.96041240  .00000900  00000+0  27829-3 0  9995", "line2": "2 33761  74.0353 236.9108 0023262 315.9644  66.3023 14.42566154883535"}}, "geometry": {"type": "Point", "coordinates": [-114.15722191811315, 29.835344544076772]}}, {"type": "Feature", "properties": {"norad_id": 33762, "name": "COSMOS 2251 DEB", "group": "cosmos-2251-debris", "lat": 48.80386420993446, "lon": 95.40684743077858, "alt_km": 782.4415449809158, "timestamp": "2025-12-21T05:44:51.979771+00:00", "meta": {"OBJECT_NAME": "COSMOS 2251 DEB", "OBJECT_ID": "1993-036K", "EPOCH": "2025-12-20T21:05:34.092384", "MEAN_MOTION": 14.33666028, "ECCENTRICITY": 0.00153423, "INCLINATION": 74.0421, "RA_OF_ASC_NODE": 295.1462, "ARG_OF_PERICENTER": 354.6131, "MEAN_ANOMALY": 73.188, "EPHEMERIS_TYPE": 0, "CLASSIFICATION_TYPE": "U", "NORAD_CAT_ID": 33762, "ELEMENT_SET_NO": 999, "REV_AT_EPOCH": 88164, "BSTAR": 3.6870316e-05, "MEAN_MOTION_DOT": 7.6e-07, "MEAN_MOTION_DDOT": 0}, "tle": {"line1": "1 33762U 93036K   25354.87886681  .00000076  00000+0  36870-4 0  9993", "line2": "2 33762  74.0421 295.1462 0015342 354.6131  73.1880 14.33666028881641"}}, "geometry": {"type": "Point", "coordinates": [95.40684743077858, 48.80386420993446]}}, {"type": "Feature", "properties": {"norad_id": 33764, "name": "COSMOS 2251 DEB", "group": "cosmos-2251-debris", "lat": 73.73113839409315, "lon": -24.211747605738477, "alt_km": 764.3717377627636, "timestamp": "2025-12-21T05:44:51.979782+00:00", "meta": {"OBJECT_NAME": "COSMOS 2251 DEB", "OBJECT_ID": "1993-036M", "EPOCH": "2025-12-20T21:20:29.008032", "MEAN_MOTION": 14.39525795, "ECCENTRICITY": 0.00235694, "INCLINATION": 74.0335, "RA_OF_ASC_NODE": 257.6089, "ARG_OF_PERICENTER": 221.8332, "MEAN_ANOMALY": 210.8058, "EPHEMERIS_TYPE": 0, "CLASSIFICATION_TYPE": "U", "NORAD_CAT_ID": 33764, "ELEMENT_SET_NO": 999, "REV_AT_EPOCH": 88274, "BSTAR": 0.00021527848, "MEAN_MOTION_DOT": 6.47e-06, "MEAN_MOTION_DDOT": 0}, "tle": {"line1": "1 33764U 93036M   25354.88922463  .00000647  00000+0  21528-3 0  9992", "line2": "2 33764  74.0335 257.6089 0023569 221.8332 210.8058 14.39525795882743"}}, "geometry": {"type": "Point", "coordinates": [-24.211747605738477, 73.73113839409315]}}, {"type": "Feature", "properties": {"norad_id": 33765, "name": "COSMOS 2251 DEB", "group": "cosmos-2251-debris", "lat": -72.14363659838389, "lon": 92.6197265759901, "alt_km": 503.6046951849603, "timestamp": "2025-12-21T05:44:51.979793+00:00", "meta": {"OBJECT_NAME": "COSMOS 2251 DEB", "OBJECT_ID": "1993-036N", "EPOCH": "2025-12-20T21:16:49.482912", "MEAN_MOTION": 15.10410664, "ECCENTRICITY": 0.00649749, "INCLINATION": 74.0079, "RA_OF_ASC_NODE": 156.2541, "ARG_OF_PERICENTER": 247.0336, "MEAN_ANOMALY": 273.0579, "EPHEMERIS_TYPE": 0, "CLASSIFICATION_TYPE": "U", "NORAD_CAT_ID": 33765, "ELEMENT_SET_NO": 999, "REV_AT_EPOCH": 89741, "BSTAR": 0.0011838573, "MEAN_MOTION_DOT": 0.00020474, "MEAN_MOTION_DDOT": 0}, "tle": {"line1": "1 33765U 93036N   25354.88668383  .00020474  00000+0  11839-2 0  9994", "line2": "2 33765  74.0079 156.2541 0064974 247.0336 273.0579 15.10410664897412"}}, "geometry": {"type": "Point", "coordinates": [92.6197265759901, -72.14363659838389]}}, {"type": "Feature", "properties": {"norad_id": 33766, "name": "COSMOS 2251 DEB", "group": "cosmos-2251-debris", "lat": -10.872521447708916, "lon": 116.4239169585159, "alt_km": 738.3638299327995, "timestamp": "2025-12-21T05:44:51.979803+00:00", "meta": {"OBJECT_NAME": "COSMOS 2251 DEB", "OBJECT_ID": "1993-036P", "EPOCH": "2025-12-20T18:05:14.529696", "MEAN_MOTION": 14.34954991, "ECCENTRICITY": 0.00645779, "INCLINATION": 74.1857, "RA_OF_ASC_NODE": 120.4265, "ARG_OF_PERICENTER": 321.5896, "MEAN_ANOMALY": 38.0667, "EPHEMERIS_TYPE": 0, "CLASSIFICATION_TYPE": "U", "NORAD_CAT_ID": 33766, "ELEMENT_SET_NO": 999, "REV_AT_EPOCH": 87860, "BSTAR": 0.00035289789, "MEAN_MOTION_DOT": 1.003e-05, "MEAN_MOTION_DDOT": 0}, "tle": {"line1": "1 33766U 93036P   25354.75364039  .00001003  00000+0  35290-3 0  9997", "line2": "2 33766  74.1857 120.4265 0064577 321.5896  38.0667 14.34954991878600"}}, "geometry": {"type": "Point", "coordinates": [116.4239169585159, -10.872521447708916]}}, {"type": "Feature", "properties": {"norad_id": 33768, "name": "COSMOS 2251 DEB", "group": "cosmos-2251-debris", "lat": 70.09025601889194, "lon": -25.91409315301148, "alt_km": 1071.7806541909886, "timestamp": "2025-12-21T05:44:51.979814+00:00", "meta": {"OBJECT_NAME": "COSMOS 2251 DEB", "OBJECT_ID": "1993-036R", "EPOCH": "2025-12-20T20:29:45.191328", "MEAN_MOTION": 13.584614, "ECCENTRICITY": 0.0366703, "INCLINATION": 74.0667, "RA_OF_ASC_NODE": 206.7723, "ARG_OF_PERICENTER": 2.7465, "MEAN_ANOMALY": 10.6176, "EPHEMERIS_TYPE": 0, "CLASSIFICATION_TYPE": "U", "NORAD_CAT_ID": 33768, "ELEMENT_SET_NO": 999, "REV_AT_EPOCH": 83406, "BSTAR": 0.00024989884, "MEAN_MOTION_DOT": 2.61e-06, "MEAN_MOTION_DDOT": 0}, "tle": {"line1": "1 33768U 93036R   25354.85399527  .00000261  00000+0  24990-3 0  9990", "line2": "2 33768  74.0667 206.7723 0366703   2.7465  10.6176 13.58461400834069"}}, "geometry": {"type": "Point", "coordinates": [-25.91409315301148, 70.09025601889194]}}]}